NORAD_CAT_ID,OBJECT_NAME,OBJECT_TYPE,EPOCH,MEAN_MOTION,ECCENTRICITY,INCLINATION,RA_OF_ASC_NODE,ARG_OF_PERICENTER,MEAN_ANOMALY,BSTAR,MEAN_MOTION_DOT,MEAN_MOTION_DDOT,TLE_LINE0,TLE_LINE1,TLE_LINE2,SEMIMAJOR_AXIS,PERIOD,APOGEE,PERIGEE,DECAYED
53414.0,STARLINK-4304,PAYLOAD,2023-11-29 23:28:33,15.08844661,0.0001845,53.2174,243.3328,110.2878,249.8313,0.00012039,1.629e-05,0.0,0 STARLINK-4304,1 53414U 22097AC  23333.97816899  .00001629  00000-0  12039-3 0  9994,2 53414  53.2174 243.3328 0001845 110.2878 249.8313 15.08844661 72755,6917.866,95.437,541.007,538.455,0.0
53414.0,STARLINK-4304,PAYLOAD,2023-11-30 23:19:21,15.0884002,0.0002095,53.2163,238.872,132.2887,227.8283,0.00010712,1.417e-05,0.0,0 STARLINK-4304,1 53414U 22097AC  23334.97177211  .00001417  00000-0  10712-3 0  9994,2 53414  53.2163 238.8720 0002095 132.2887 227.8283 15.08840020 72904,6917.88,95.438,541.195,538.296,0.0
53414.0,STARLINK-4304,PAYLOAD,2023-12-01 21:34:44,15.0885955,0.0003101,53.2177,234.7195,148.0018,212.1162,7.6136e-05,9.24e-06,0.0,0 STARLINK-4304,1 53414U 22097AC  23335.89912180  .00000924  00000-0  76136-4 0  9993,2 53414  53.2177 234.7195 0003101 148.0018 212.1162 15.08859550 73520,6917.821,95.436,541.831,537.54,0.0
53414.0,STARLINK-4304,PAYLOAD,2023-12-02 00:45:30,15.08866442,0.0001443,53.2155,234.1142,73.5067,286.6083,0.00076968,0.00011992,0.0,0 STARLINK-4304,1 53414U 22097AC  23336.03160636  .00011992  00000-0  76968-3 0  9990,2 53414  53.2155 234.1142 0001443  73.5067 286.6083 15.08866442 73060,6917.8,95.436,540.663,538.666,0.0
53414.0,STARLINK-4304,PAYLOAD,2023-12-02 21:25:34,15.08805065,0.0001743,53.2155,230.2513,110.5433,249.5746,-0.00043749,-7.237e-05,0.0,0 STARLINK-4304,1 53414U 22097AC  23336.89275544 -.00007237  00000-0 -43749-3 0  9999,2 53414  53.2155 230.2513 0001743 110.5433 249.5746 15.08805065 73676,6917.987,95.44,541.058,538.646,0.0
53414.0,STARLINK-4304,PAYLOAD,2023-12-03 03:47:06,15.08826724,0.0001512,53.2152,229.0556,110.59,249.5255,0.00021722,3.17e-05,0.0,0 STARLINK-4304,1 53414U 22097AC  23337.15771519  .00003170  00000-0  21722-3 0  9999,2 53414  53.2152 229.0556 0001512 110.5900 249.5255 15.08826724 73231,6917.921,95.438,540.832,538.74,0.0
53414.0,STARLINK-4304,PAYLOAD,2023-12-03 16:30:10,15.08839953,0.000148,53.2143,226.674,88.5644,271.5517,0.0003374,5.086e-05,0.0,0 STARLINK-4304,1 53414U 22097AC  23337.68762467  .00005086  00000-0  33740-3 0  9990,2 53414  53.2143 226.6740 0001480  88.5644 271.5517 15.08839953 73315,6917.881,95.438,540.769,538.722,0.0
53414.0,STARLINK-4304,PAYLOAD,2023-12-04 02:02:28,15.08872072,0.0001729,53.2162,224.8914,78.3798,281.7389,0.00079454,0.00012391,0.0,0 STARLINK-4304,1 53414U 22097AC  23338.08505176  .00012391  00000-0  79454-3 0  9996,2 53414  53.2162 224.8914 0001729  78.3798 281.7389 15.08872072 73377,6917.782,95.436,540.843,538.451,0.0
53414.0,STARLINK-4304,PAYLOAD,2023-12-04 19:31:43,15.08846747,0.0001219,53.2153,221.6223,102.2107,257.9022,4.6452e-05,4.52e-06,0.0,0 STARLINK-4304,1 53414U 22097AC  23338.81370272  .00000452  00000-0  46452-4 0  9992,2 53414  53.2153 221.6223 0001219 102.2107 257.9022 15.08846747 73964,6917.86,95.437,540.568,538.881,0.0
53414.0,STARLINK-4304,PAYLOAD,2023-12-05 01:53:16,15.08847492,0.0001389,53.2157,220.4321,92.1262,267.9889,0.00014136,1.963e-05,0.0,0 STARLINK-4304,1 53414U 22097AC  23339.07866378  .00001963  00000-0  14136-3 0  9999,2 53414  53.2157 220.4321 0001389  92.1262 267.9889 15.08847492 73523,6917.857,95.437,540.683,538.762,0.0
53414.0,STARLINK-4304,PAYLOAD,2023-12-07 15:53:18,15.08841436,0.0001431,53.2157,208.834,91.2321,268.8835,3.5871e-05,2.83e-06,0.0,0 STARLINK-4304,1 53414U 22097AC  23341.66201971  .00000283  00000-0  35871-4 0  9993,2 53414  53.2157 208.8340 0001431  91.2321 268.8835 15.08841436 73914,6917.876,95.437,540.731,538.751,0.0
53414.0,STARLINK-4304,PAYLOAD,2023-12-08 15:44:05,15.08838672,0.0001383,53.2158,204.3732,91.2183,268.8968,2.0667e-05,4.1e-07,0.0,0 STARLINK-4304,1 53414U 22097AC  23342.65562147  .00000041  00000-0  20667-4 0  9997,2 53414  53.2158 204.3732 0001383  91.2183 268.8968 15.08838672 74548,6917.884,95.438,540.706,538.793,0.0
53414.0,STARLINK-4304,PAYLOAD,2023-12-09 13:59:29,15.08837893,0.000142,53.2154,200.2104,93.5086,266.6069,1.5905e-05,-3.5e-07,0.0,0 STARLINK-4304,1 53414U 22097AC  23343.58298270 -.00000035  00000-0  15905-4 0  9996,2 53414  53.2154 200.2104 0001420  93.5086 266.6069 15.08837893 74688,6917.887,95.438,540.734,538.769,0.0
53414.0,STARLINK-4304,PAYLOAD,2023-12-09 17:10:15,15.08842343,0.0001701,53.215,199.6165,93.5248,266.5938,6.0172e-06,-1.92e-06,0.0,0 STARLINK-4304,1 53414U 22097AC  23343.71545866 -.00000192  00000-0  60172-5 0  9998,2 53414  53.2150 199.6165 0001701  93.5248 266.5938 15.08842343 74224,6917.873,95.437,540.915,538.561,0.0
53414.0,STARLINK-4304,PAYLOAD,2023-12-09 23:31:48,15.08842081,0.0001611,53.2154,198.4275,91.311,268.8067,0.00010322,1.355e-05,0.0,0 STARLINK-4304,1 53414U 22097AC  23343.98042084  .00001355  00000-0  10322-3 0  9992,2 53414  53.2154 198.4275 0001611  91.3110 268.8067 15.08842081 74745,6917.874,95.437,540.853,538.625,0.0
53414.0,STARLINK-4304,PAYLOAD,2023-12-10 18:36:26,15.08839141,0.0001742,53.215,194.8585,94.7749,265.3442,7.4158e-05,8.92e-06,0.0,0 STARLINK-4304,1 53414U 22097AC  23344.77530405  .00000892  00000-0  74158-4 0  9992,2 53414  53.2150 194.8585 0001742  94.7749 265.3442 15.08839141 74387,6917.883,95.438,540.953,538.543,0.0
53414.0,STARLINK-4304,PAYLOAD,2023-12-10 21:47:12,15.08839989,0.0001717,53.2151,194.264,93.0029,267.1159,7.6387e-05,9.28e-06,0.0,0 STARLINK-4304,1 53414U 22097AC  23344.90778310  .00000928  00000-0  76387-4 0  9992,2 53414  53.2151 194.2640 0001717  93.0029 267.1159 15.08839989 74889,6917.88,95.438,540.933,538.558,0.0
53414.0,STARLINK-4304,PAYLOAD,2023-12-11 20:02:36,15.08841151,0.0001748,53.2152,190.1008,90.1719,269.9474,2.2847e-05,7.6e-07,0.0,0 STARLINK-4304,1 53414U 22097AC  23345.83514479  .00000076  00000-0  22847-4 0  9995,2 53414  53.2152 190.1008 0001748  90.1719 269.9474 15.08841151 74548,6917.877,95.437,540.951,538.533,0.0
53414.0,STARLINK-4304,PAYLOAD,2023-12-11 21:37:59,15.08840889,0.0001754,53.2152,189.8035,89.9893,270.13,1.7341e-05,-1.2e-07,0.0,0 STARLINK-4304,1 53414U 22097AC  23345.90138449 -.00000012  00000-0  17341-4 0  9996,2 53414  53.2152 189.8035 0001754  89.9893 270.1300 15.08840889 75033,6917.878,95.437,540.956,538.529,0.0
53414.0,STARLINK-4304,PAYLOAD,2023-12-12 19:53:23,15.088435,0.0001769,53.2152,185.6423,87.4042,272.7152,7.8278e-05,9.58e-06,0.0,0 STARLINK-4304,1 53414U 22097AC  23346.82874119  .00000958  00000-0  78278-4 0  9993,2 53414  53.2152 185.6423 0001769  87.4042 272.7152 15.08843500 75174,6917.87,95.437,540.958,538.511,0.0
53414.0,STARLINK-4304,PAYLOAD,2023-12-13 19:44:10,15.08842457,0.0001716,53.2155,181.1751,93.9708,266.148,5.5451e-05,5.95e-06,0.0,0 STARLINK-4304,1 53414U 22097AC  23347.82234029  .00000595  00000-0  55451-4 0  9999,2 53414  53.2155 181.1751 0001716  93.9708 266.1480 15.08842457 74849,6917.873,95.437,540.925,538.551,0.0
53414.0,STARLINK-4304,PAYLOAD,2023-12-14 19:34:57,15.08835628,0.0001799,53.216,176.7141,97.6899,262.4298,-1.2097e-05,-4.81e-06,0.0,0 STARLINK-4304,1 53414U 22097AC  23348.81594750 -.00000481  00000-0 -12097-4 0  9994,2 53414  53.2160 176.7141 0001799  97.6899 262.4298 15.08835628 74995,6917.894,95.438,541.003,538.514,0.0
53414.0,STARLINK-4304,PAYLOAD,2023-12-15 19:25:44,15.08836667,0.0001821,53.2162,172.2561,101.4122,258.7075,4.0878e-05,3.62e-06,0.0,0 STARLINK-4304,1 53414U 22097AC  23349.80954729  .00000362  00000-0  40878-4 0  9994,2 53414  53.2162 172.2561 0001821 101.4122 258.7075 15.08836667 75629,6917.891,95.438,541.015,538.496,0.0
53414.0,STARLINK-4304,PAYLOAD,2023-12-16 17:41:08,15.08839431,0.0001727,53.2159,168.0928,100.1498,259.9689,0.00010228,1.34e-05,0.0,0 STARLINK-4304,1 53414U 22097AC  23350.73690618  .00001340  00000-0  10228-3 0  9994,2 53414  53.2159 168.0928 0001727 100.1498 259.9689 15.08839431 75280,6917.882,95.438,540.942,538.552,0.0
53414.0,STARLINK-4304,PAYLOAD,2023-12-17 17:31:55,15.08840804,0.0001868,53.2159,163.6332,109.4866,250.6328,6.0783e-05,6.79e-06,0.0,0 STARLINK-4304,1 53414U 22097AC  23351.73050747  .00000679  00000-0  60783-4 0  9994,2 53414  53.2159 163.6332 0001868 109.4866 250.6328 15.08840804 75911,6917.878,95.438,541.035,538.451,0.0
53414.0,STARLINK-4304,PAYLOAD,2023-12-18 18:58:05,15.08856324,0.0002099,53.2168,158.8815,121.4549,238.6649,-0.00010784,-2.005e-05,0.0,0 STARLINK-4304,1 53414U 22097AC  23352.79034284 -.00002005  00000-0 -10784-3 0  9991,2 53414  53.2168 158.8815 0002099 121.4549 238.6649 15.08856324 75592,6917.83,95.437,541.148,538.243,0.0
53414.0,STARLINK-4304,PAYLOAD,2023-12-19 17:13:30,15.08841277,0.000169,53.2165,154.7104,89.5359,270.5827,-1.957e-05,-6e-06,0.0,0 STARLINK-4304,1 53414U 22097AC  23353.71771169 -.00000600  00000-0 -19570-4 0  9996,2 53414  53.2165 154.7104 0001690  89.5359 270.5827 15.08841277 75734,6917.876,95.437,540.911,538.572,0.0
53414.0,STARLINK-4304,PAYLOAD,2023-12-20 13:53:30,15.08844471,0.0001644,53.217,150.8433,93.732,266.386,6.831e-05,7.99e-06,0.0,0 STARLINK-4304,1 53414U 22097AC  23354.57882675  .00000799  00000-0  68310-4 0  9999,2 53414  53.2170 150.8433 0001644  93.7320 266.3860 15.08844471 76343,6917.867,95.437,540.869,538.594,0.0
53414.0,STARLINK-4304,PAYLOAD,2023-12-20 17:04:16,15.08846579,0.000169,53.2163,150.2511,80.1486,279.9697,0.00012846,1.757e-05,0.0,0 STARLINK-4304,1 53414U 22097AC  23354.71130474  .00001757  00000-0  12846-3 0  9995,2 53414  53.2163 150.2511 0001690  80.1486 279.9697 15.08846579 75887,6917.86,95.437,540.894,538.556,0.0
53414.0,STARLINK-4304,PAYLOAD,2023-12-21 13:44:17,15.08839898,0.0001859,53.217,146.3825,114.0697,246.049,6.966e-05,8.21e-06,0.0,0 STARLINK-4304,1 53414U 22097AC  23355.57242971  .00000821  00000-0  69660-4 0  9994,2 53414  53.2170 146.3825 0001859 114.0697 246.0490 15.08839898 76497,6917.881,95.438,541.032,538.46,0.0
